{
    "links": {
        "self": "http://www.neowsapp.com/rest/v1/neo/3660057?api_key=iIulBulltgU6a56xZRHN4H3l9WmuAYTsLGpBGhQ2"
    },
    "id": "3660057",
    "neo_reference_id": "3660057",
    "name": "(2014 BO43)",
    "designation": "2014 BO43",
    "nasa_jpl_url": "http://ssd.jpl.nasa.gov/sbdb.cgi?sstr=3660057",
    "absolute_magnitude_h": 23.0,
    "estimated_diameter": {
        "kilometers": {
            "estimated_diameter_min": 0.0667659413,
            "estimated_diameter_max": 0.1492931834
        },
        "meters": {
            "estimated_diameter_min": 66.7659413495,
            "estimated_diameter_max": 149.2931834393
        },
        "miles": {
            "estimated_diameter_min": 0.0414864197,
            "estimated_diameter_max": 0.0927664547
        },
        "feet": {
            "estimated_diameter_min": 219.0483710172,
            "estimated_diameter_max": 489.807047955
        }
    },
    "is_potentially_hazardous_asteroid": false,
    "close_approach_data": [
        {
            "close_approach_date": "2007-01-14",
            "close_approach_date_full": "2007-Jan-14 17:37",
            "epoch_date_close_approach": 1168796220000,
            "relative_velocity": {
                "kilometers_per_second": "16.381479839",
                "kilometers_per_hour": "58973.327420279",
                "miles_per_hour": "36643.7322517839"
            },
            "miss_distance": {
                "astronomical": "0.381711714",
                "lunar": "148.485856746",
                "kilometers": "57103259.36844918",
                "miles": "35482320.034511484"
            },
            "orbiting_body": "Earth"
        },
        {
            "close_approach_date": "2014-01-21",
            "close_approach_date_full": "2014-Jan-21 16:32",
            "epoch_date_close_approach": 1390321920000,
            "relative_velocity": {
                "kilometers_per_second": "14.1201896158",
                "kilometers_per_hour": "50832.6826168375",
                "miles_per_hour": "31585.4521515566"
            },
            "miss_distance": {
                "astronomical": "0.2804896021",
                "lunar": "109.1104552169",
                "kilometers": "41960647.031307527",
                "miles": "26073137.0378247926"
            },
            "orbiting_body": "Earth"
        }
    ],
    "orbital_data": {
        "orbit_id": "7",
        "orbit_determination_date": "2017-04-06 08:42:41",
        "first_observation_date": "2014-01-24",
        "last_observation_date": "2014-02-05",
        "data_arc_in_days": 12,
        "observations_used": 13,
        "orbit_uncertainty": "7",
        "minimum_orbit_intersection": ".248344",
        "jupiter_tisserand_invariant": "4.526",
        "epoch_osculation": "2459000.5",
        "eccentricity": ".1832129806501568",
        "semi_major_axis": "1.441491722455815",
        "inclination": "27.64959117505339",
        "ascending_node_longitude": "124.3658298795009",
        "orbital_period": "632.1449257099453",
        "perihelion_distance": "1.177391727402157",
        "perihelion_argument": "311.8258912227432",
        "aphelion_distance": "1.705591717509473",
        "perihelion_time": "2459145.414759906658",
        "mean_anomaly": "277.4725423797288",
        "mean_motion": ".5694896618772879",
        "equinox": "J2000",
        "orbit_class": {
            "orbit_class_type": "AMO",
            "orbit_class_description": "Near-Earth asteroid orbits similar to that of 1221 Amor",
            "orbit_class_range": "1.017 AU < q (perihelion) < 1.3 AU"
        }
    },
    "is_sentry_object": false
}